#cP2009  9 22  0  0  0.00000000      96 ORBIT IGS05 HLM  IGS
## 1550 172800.00000000   900.00000000 55096 0.0000000000000
+   32   G01G02G03G04G05G06G07G08G09G10G11G12G13G14G15G16G17
+        G18G19G20G21G22G23G24G25G26G27G28G29G30G31G32  0  0
+          0  0  0  0  0  0  0  0  0  0  0  0  0  0  0  0  0
+          0  0  0  0  0  0  0  0  0  0  0  0  0  0  0  0  0
+          0  0  0  0  0  0  0  0  0  0  0  0  0  0  0  0  0
++         4  2  2  2  0  2  2  2  2  2  2  2  2  2  2  2  2
++         2  2  2  2  2  2  3  2  2  2  2  2  2  2  2  0  0
++         0  0  0  0  0  0  0  0  0  0  0  0  0  0  0  0  0
++         0  0  0  0  0  0  0  0  0  0  0  0  0  0  0  0  0
++         0  0  0  0  0  0  0  0  0  0  0  0  0  0  0  0  0
%c G  cc GPS ccc cccc cccc cccc cccc ccccc ccccc ccccc ccccc
%c cc cc ccc ccc cccc cccc cccc cccc ccccc ccccc ccccc ccccc
%f  1.2500000  1.025000000  0.00000000000  0.000000000000000
%f  0.0000000  0.000000000  0.00000000000  0.000000000000000
%i    0    0    0    0      0      0      0      0         0
%i    0    0    0    0      0      0      0      0         0
/* FINAL ORBIT COMBINATION FROM WEIGHTED AVERAGE OF:        
/* cod emr esa gfz grg jpl mit ngs sio                      
/* REFERENCED TO IGS TIME (IGST) AND TO WEIGHTED MEAN POLE: 
/* PCV:IGS05_1545 OL/AL:FES2004  NONE     Y  ORB:CMB CLK:CMB
*  2009  9 22  4 30  0.00000000
PG01 -12275.372353 -17804.077450 -15589.968362 999999.999999
PG02  22963.390474 -12028.253443  -4697.477642    174.383184  7  6  4 113       
PG03 -11922.769374  13546.963369  19041.658314    450.420497  6  6  6 125       
PG04  22895.545607  -3722.398849 -13407.555891   -276.663443  7  8  5 116       
PG05  16756.107153  -7034.118663  19390.009943 999999.999999
PG06 -14146.602513   9428.754409  20570.804691    242.870884  6  7  7 145       
PG07   5295.595961  14393.299566  21651.170588     11.015662  5  6  4 131       
PG08  17016.937200   5051.918478  19887.973685   -222.245523  2  6  5 126       
PG09  11674.687991 -19974.559066 -13651.245636     78.833550  6  7  3 127       
PG10  18566.302691  -5039.476648  18290.294268    -24.117673  4  4  6 115       
PG11  -6640.842581  22283.625719 -12737.135037    -20.761135  6  5  5  98       
PG12   1069.863379 -15787.794830 -21293.910944   -215.361476  6  8  8 112       
PG13   6130.850728  24220.934573   8859.503114    304.897245  5  8  5  74       
PG14 -13482.365812 -11262.961754 -19831.043701    -47.654360  5  6  4 125       
PG15   8501.611708 -20447.373733  14639.274737   -318.872391  7  7  5 108       
PG16 -22118.684767    254.951192  14925.403627     10.252906  7  7  6 115       
PG17  14257.617663  11181.872695 -19415.164782     86.900150  4  5  5 142       
PG18 -17538.421214 -17484.344224  10346.522162     14.625199  6  4  5 125       
PG19  -8992.941246  21312.268292  12849.595772      9.712888  6 10  5 103       
PG20   2193.371242  17187.924886 -20265.070845     71.713404  8  8  6 107       
PG21 -10004.956511 -12468.036630  21514.685264    -10.625934  6  5  3 130       
PG22 -23831.581182 -11791.971008   -723.483018    190.413561  6  7  6 109       
PG23  -1400.719170  25945.856449  -4693.749973    388.324855  8 10  6 143       
PG24   5511.736301 -18698.517861  18273.800625    222.545529  9  5  6 169       
PG25  -1730.162506  18598.571194  19294.219717    603.650944  3  4  3 121       
PG26 -10901.180399 -18201.277589 -16191.613878     62.102647  5  7  6 159       
PG27  16195.354758 -19217.932326  -7859.994673     84.794882  6  7  4 139       
PG28  22969.924212  13567.627243   2140.546533    -26.129030  6  7  5 136       
PG29  -5611.866802 -25250.254870   6224.985874     59.603387  7  6  7 137       
PG30 -10603.515980 -17741.986634 -17102.878227    178.908187  6  6  5 139       
PG31 -22975.892486   6028.581200 -11825.440680    -64.061199  4  6  6 132       
PG32  -6401.481246  13627.239676 -21504.909933    192.039518  8  6  6 120       
*  2009  9 22  4 45  0.00000000
PG01 -10496.737995 -17207.454487 -17450.447081 999999.999999
PG02  22607.791275 -11345.595286  -7421.419056    174.385888  7  6  4 106       
PG03 -12587.553838  11315.374942  20058.942006    450.426186  6  6  6 126       
PG04  21705.683814  -2600.372431 -15478.143185   -276.678816  7  8  5 103       
PG05  18665.459882  -6065.895700  17928.882988 999999.999999
PG06 -14590.625588   7106.585454  21198.017672    242.876142  6  7  7 145       
PG07   3289.980877  15796.371171  21049.892957     11.015097  5  7  4 130       
PG08  15081.202973   6344.888928  20999.395857   -222.246289     6  5 122       
PG09  12819.295600 -20671.595552 -11254.841077     78.837080  6  8  2 127       
PG10  20331.788451  -4053.849015  16626.056107    -24.118552  4  3  6 118       
PG11  -7810.884134  23025.736411 -10484.843709    -20.762442  6  5  5 115       
PG12   3339.406267 -14809.743798 -21744.677047   -215.356424  5  8  8 108       
PG13   6020.642802  25096.770045   6108.104415    304.897715  5  8  5  68       
PG14 -13547.659631 -13465.034244 -18381.328141    -47.649688  4  5  5 124       
PG15   8912.471582 -18697.325423  16612.083239   -318.873259  7  7  4 109       
PG16 -23466.252061   -555.658205  12707.740438     10.249404  6  6  6 106       
PG17  14329.677894  13330.894941 -17974.308531     86.902824  4  4  6 142       
PG18 -16284.111874 -17150.407050  12706.373917     14.627700  6  5  5 124       
PG19  -9266.118090  19721.506909  15042.365161      9.711247  5 10  5 112       
PG20     -8.567647  16379.349425 -21039.018709     71.712964  8  9  7  86       
PG21  -8022.625611 -13837.931375  21450.940306    -10.628223  5  6  3 129       
PG22 -23642.083900 -12048.869409   2080.097408    190.413008  6  6  6 112       
PG23  -1713.528253  25277.327008  -7470.877919    388.324512  7 10  6 144       
PG24   7238.647099 -19654.553401  16601.748898    222.547395  9  6  7 170       
PG25  -3330.173494  19880.374682  17730.992247    603.663727  3  4  3 121       
PG26 -10849.548004 -19862.177612 -14017.532583     62.101755  5  7  6 158       
PG27  16967.474078 -19574.988383  -5102.730424     84.798369  5  7  4 134       
PG28  22562.019407  13601.827718   4953.557009    -26.128853  5  6  5 137       
PG29  -5411.283617 -25810.542671   3443.841202     59.606413  6  6  6 139       
PG30  -8704.203922 -17160.597538 -18722.309298    178.910367  6  6  5 142       
PG31 -21861.873990   4996.988466 -14138.125559    -64.060799  4  6  6 138       
PG32  -8624.842685  12396.780350 -21448.421093    192.033055  8  6  6 122       
*  2009  9 22  5  0  0.00000000
PG01  -8507.890396 -16639.330704 -19014.007496 999999.999999
PG02  22054.594801 -10452.044821 -10014.736600    174.388792  7  5  2 106       
PG03 -13378.894852   9026.138590  20718.557521    450.429027  6  5  5 132       
PG04  20404.936414  -1282.165492 -17289.009187   -276.694864  7  8  4 110       
PG05  20450.790874  -5262.347874  16160.009636 999999.999999
PG06 -15156.694386   4760.808899  21466.055255    242.881632  6  7  7 145       
PG07   1429.242958  17248.209664  20084.876956     11.014475  6  8  4 128       
PG08  13133.718854   7811.779317  21751.933230   -222.247461     6  4 120       
PG09  13720.491937 -21245.336545  -8669.954447     78.839862  6  8  3 129       
PG10  21953.407359  -3238.526037  14676.169514    -24.119894  4  3  6 117       
PG11  -8791.635780  23607.829224  -8050.462893    -20.763958  6  5  5 113       
PG12   5686.790837 -13942.556062 -21819.594026   -215.351432  5  7  7 110       
PG13   5926.681759  25659.639804   3251.107938    304.897992  4  8  5  81       
PG14 -13713.393225 -15476.526906 -16613.461321    -47.645192  3  4  5 112       
PG15   9449.820400 -16767.565707  18298.743337   -318.874502  7  6  5 116       
PG16 -24611.693455  -1195.377544  10274.584548     10.245749  6  6  6 110       
PG17  14487.036971  15292.856349 -16224.586108     86.905938  4  5  6 141       
PG18 -14782.188673 -16785.232119  14854.466115     14.630104  6  6  4 119       
PG19  -9641.285229  17915.203821  16973.858175      9.709834  5 10  5  98       
PG20  -2310.929346  15658.345592 -21455.115359     71.711959  7  9  7 101       
PG21  -6125.087988 -15289.168656  21026.201598    -10.629934  5  6  3 133       
PG22 -23175.901863 -12194.384407   4848.116944    190.411687  5  6  6 115       
PG23  -2110.469312  24321.339395 -10117.291006    388.324124  7 10  6 140       
PG24   8750.925282 -20575.671455  14649.291271    222.550742  9  6  8 171       
PG25  -4723.696971  21112.720906  15872.263605    603.676710  3  4  4 116       
PG26 -10860.729192 -21271.251067 -11603.923375     62.100794  5  7  6 153       
PG27  17479.549455 -19757.258421  -2255.996597     84.802923  6  7  4 127       
PG28  21871.061129  13538.777532   7683.668402    -26.128916  4  6  5 138       
PG29  -5194.734958 -26066.267609    603.667109     59.609556  6  6  6 133       
PG30  -6623.908815 -16628.290354 -20029.770934    178.910596  5  6  4 139       
PG31 -20613.179759   3745.043268 -16206.111325    -64.060248  5  6  5 131       
PG32 -10884.509175  11292.634730 -21008.884256    192.026737  8  6  6 117       
EOF
